[{"OBJECT_NAME":"RESURS-P 5","OBJECT_ID":"2024-250A","EPOCH":"2026-03-09T23:31:56.908992","MEAN_MOTION":15.32839945,"ECCENTRICITY":0.00026027,"INCLINATION":97.276,"RA_OF_ASC_NODE":355.9792,"ARG_OF_PERICENTER":63.1234,"MEAN_ANOMALY":297.0274,"EPHEMERIS_TYPE":0,"CLASSIFICATION_TYPE":"U","NORAD_CAT_ID":62430,"ELEMENT_SET_NO":999,"REV_AT_EPOCH":6735,"BSTAR":0.00015600887,"MEAN_MOTION_DOT":4.871e-5,"MEAN_MOTION_DDOT":0},{"OBJECT_NAME":"STARLINK-34688","OBJECT_ID":"2025-223X","EPOCH":"2026-03-09T21:47:22.710336","MEAN_MOTION":15.30208727,"ECCENTRICITY":0.00010296,"INCLINATION":53.1574,"RA_OF_ASC_NODE":293.5451,"ARG_OF_PERICENTER":86.9953,"MEAN_ANOMALY":273.1165,"EPHEMERIS_TYPE":0,"CLASSIFICATION_TYPE":"U","NORAD_CAT_ID":65875,"ELEMENT_SET_NO":999,"REV_AT_EPOCH":2423,"BSTAR":0.00086801624,"MEAN_MOTION_DOT":0.00025444,"MEAN_MOTION_DDOT":0}]
